start=new Date('2023-02-15T00:00:00.000Z').valueOf();
sats=[{"CLASSIFICATION_TYPE":"U","TLE_LINE1":"1 47831U 21018AW  23045.59758203  .00000869  00000-0  77244-4 0  9999","REF_FRAME":"TEME","CENTER_NAME":"EARTH","OBJECT_NAME":"STARLINK-2420","DECAY_DATE":null,"MEAN_ELEMENT_THEORY":"SGP4","PERIOD":"95.593","MEAN_MOTION_DDOT":"0.0000000000000","OBJECT_TYPE":"PAYLOAD","PERIAPSIS":"546.016","COUNTRY_CODE":"US","TIME_SYSTEM":"UTC","EPHEMERIS_TYPE":"0","INCLINATION":"53.0528","TLE_LINE2":"2 47831  53.0528 220.4096 0001756  79.1122 281.0065 15.06393947108189","REV_AT_EPOCH":"10818","MEAN_ANOMALY":"281.0065","APOAPSIS":"548.448","SEMIMAJOR_AXIS":"6925.367","MEAN_MOTION_DOT":"0.00000869","OBJECT_ID":"2021-018AW","NORAD_CAT_ID":"47831","EPOCH":"2023-02-14T14:20:31.087392","SITE":"AFETR","RA_OF_ASC_NODE":"220.4096","LAUNCH_DATE":"2021-03-11","GP_ID":"225432454","RCS_SIZE":"LARGE","MEAN_MOTION":"15.06393947","ARG_OF_PERICENTER":"79.1122","ELEMENT_SET_NO":"999","ECCENTRICITY":"0.00017560","FILE":"3792084","BSTAR":"0.00007724400000"},{"FILE":"3792084","BSTAR":"-0.00000136000000","ARG_OF_PERICENTER":"98.2764","ELEMENT_SET_NO":"999","ECCENTRICITY":"0.00013680","LAUNCH_DATE":"2021-03-11","RCS_SIZE":"LARGE","GP_ID":"225432195","MEAN_MOTION":"15.06394407","RA_OF_ASC_NODE":"234.4266","SITE":"AFETR","EPOCH":"2023-02-14T19:39:37.878624","NORAD_CAT_ID":"47832","OBJECT_ID":"2021-018AX","MEAN_MOTION_DOT":"-0.00000302","MEAN_ANOMALY":"261.8380","APOAPSIS":"548.178","SEMIMAJOR_AXIS":"6925.366","TLE_LINE2":"2 47832  53.0513 234.4266 0001368  98.2764 261.8380 15.06394407107953","REV_AT_EPOCH":"10795","INCLINATION":"53.0513","EPHEMERIS_TYPE":"0","PERIAPSIS":"546.283","COUNTRY_CODE":"US","TIME_SYSTEM":"UTC","PERIOD":"95.592","MEAN_MOTION_DDOT":"0.0000000000000","OBJECT_TYPE":"PAYLOAD","DECAY_DATE":null,"MEAN_ELEMENT_THEORY":"SGP4","OBJECT_NAME":"STARLINK-2422","CENTER_NAME":"EARTH","REF_FRAME":"TEME","CLASSIFICATION_TYPE":"U","TLE_LINE1":"1 47832U 21018AX  23045.81918841 -.00000302  00000-0 -13600-5 0  9992"},{"MEAN_ELEMENT_THEORY":"SGP4","DECAY_DATE":null,"OBJECT_TYPE":"PAYLOAD","MEAN_MOTION_DDOT":"0.0000000000000","PERIOD":"95.592","TLE_LINE1":"1 47833U 21018AY  23045.77864746  .00002409  00000-0  18055-3 0  9997","CLASSIFICATION_TYPE":"U","REF_FRAME":"TEME","OBJECT_NAME":"STARLINK-2423","CENTER_NAME":"EARTH","EPHEMERIS_TYPE":"0","INCLINATION":"53.0536","TIME_SYSTEM":"UTC","COUNTRY_CODE":"US","PERIAPSIS":"546.445","OBJECT_ID":"2021-018AY","MEAN_MOTION_DOT":"0.00002409","NORAD_CAT_ID":"47833","EPOCH":"2023-02-14T18:41:15.140544","REV_AT_EPOCH":"10800","TLE_LINE2":"2 47833  53.0536 234.6018 0001103  91.3687 268.7429 15.06401400108000","SEMIMAJOR_AXIS":"6925.344","APOAPSIS":"547.973","MEAN_ANOMALY":"268.7429","ECCENTRICITY":"0.00011030","ELEMENT_SET_NO":"999","ARG_OF_PERICENTER":"91.3687","BSTAR":"0.00018055000000","FILE":"3792084","SITE":"AFETR","RA_OF_ASC_NODE":"234.6018","MEAN_MOTION":"15.06401400","GP_ID":"225430953","RCS_SIZE":"LARGE","LAUNCH_DATE":"2021-03-11"},{"REF_FRAME":"TEME","CENTER_NAME":"EARTH","OBJECT_NAME":"STARLINK-2424","CLASSIFICATION_TYPE":"U","TLE_LINE1":"1 47834U 21018AZ  23045.78970555  .00002251  00000-0  16997-3 0  9993","PERIOD":"95.592","OBJECT_TYPE":"PAYLOAD","MEAN_MOTION_DDOT":"0.0000000000000","DECAY_DATE":null,"MEAN_ELEMENT_THEORY":"SGP4","PERIAPSIS":"546.469","COUNTRY_CODE":"US","TIME_SYSTEM":"UTC","INCLINATION":"53.0506","EPHEMERIS_TYPE":"0","MEAN_ANOMALY":"272.0691","APOAPSIS":"547.950","SEMIMAJOR_AXIS":"6925.345","TLE_LINE2":"2 47834  53.0506 234.5586 0001069  88.0421 272.0691 15.06401322108009","REV_AT_EPOCH":"10800","NORAD_CAT_ID":"47834","EPOCH":"2023-02-14T18:57:10.559520","MEAN_MOTION_DOT":"0.00002251","OBJECT_ID":"2021-018AZ","LAUNCH_DATE":"2021-03-11","GP_ID":"225431203","RCS_SIZE":"LARGE","MEAN_MOTION":"15.06401322","RA_OF_ASC_NODE":"234.5586","SITE":"AFETR","FILE":"3792084","BSTAR":"0.00016997000000","ARG_OF_PERICENTER":"88.0421","ELEMENT_SET_NO":"999","ECCENTRICITY":"0.00010690"},{"EPHEMERIS_TYPE":"0","INCLINATION":"53.0511","TIME_SYSTEM":"UTC","COUNTRY_CODE":"US","PERIAPSIS":"546.560","MEAN_ELEMENT_THEORY":"SGP4","DECAY_DATE":null,"OBJECT_TYPE":"PAYLOAD","MEAN_MOTION_DDOT":"0.0000000000000","PERIOD":"95.593","TLE_LINE1":"1 47835U 21018BA  23045.81691070  .00004788  00000-0  34016-3 0  9999","CLASSIFICATION_TYPE":"U","CENTER_NAME":"EARTH","OBJECT_NAME":"STARLINK-2425","REF_FRAME":"TEME","ECCENTRICITY":"0.00009810","ELEMENT_SET_NO":"999","ARG_OF_PERICENTER":"92.2646","BSTAR":"0.00034016000000","FILE":"3792084","SITE":"AFETR","RA_OF_ASC_NODE":"239.5621","MEAN_MOTION":"15.06391474","RCS_SIZE":"LARGE","GP_ID":"225431955","LAUNCH_DATE":"2021-03-11","MEAN_MOTION_DOT":"0.00004788","OBJECT_ID":"2021-018BA","NORAD_CAT_ID":"47835","EPOCH":"2023-02-14T19:36:21.084480","REV_AT_EPOCH":"10787","TLE_LINE2":"2 47835  53.0511 239.5621 0000981  92.2646 267.8455 15.06391474107879","SEMIMAJOR_AXIS":"6925.375","APOAPSIS":"547.919","MEAN_ANOMALY":"267.8455"},{"TLE_LINE1":"1 47836U 21018BB  23045.80814509  .00002148  00000-0  16305-3 0  9992","CLASSIFICATION_TYPE":"U","OBJECT_NAME":"STARLINK-2426","REF_FRAME":"TEME","CENTER_NAME":"EARTH","DECAY_DATE":null,"MEAN_ELEMENT_THEORY":"SGP4","PERIOD":"95.592","MEAN_MOTION_DDOT":"0.0000000000000","OBJECT_TYPE":"PAYLOAD","COUNTRY_CODE":"US","PERIAPSIS":"546.424","TIME_SYSTEM":"UTC","EPHEMERIS_TYPE":"0","INCLINATION":"53.0520","REV_AT_EPOCH":"10795","TLE_LINE2":"2 47836  53.0520 234.5606 0001141  81.6095 278.5024 15.06399901107950","APOAPSIS":"548.004","MEAN_ANOMALY":"278.5024","SEMIMAJOR_AXIS":"6925.349","OBJECT_ID":"2021-018BB","MEAN_MOTION_DOT":"0.00002148","NORAD_CAT_ID":"47836","EPOCH":"2023-02-14T19:23:43.735776","RA_OF_ASC_NODE":"234.5606","SITE":"AFETR","LAUNCH_DATE":"2021-03-11","MEAN_MOTION":"15.06399901","GP_ID":"225432695","RCS_SIZE":"LARGE","ELEMENT_SET_NO":"999","ARG_OF_PERICENTER":"81.6095","ECCENTRICITY":"0.00011410","FILE":"3792084","BSTAR":"0.00016305000000"},{"OBJECT_ID":"2021-018BC","MEAN_MOTION_DOT":"0.00001725","NORAD_CAT_ID":"47837","EPOCH":"2023-02-14T18:01:26.136480","REV_AT_EPOCH":"10823","TLE_LINE2":"2 47837  53.0528 214.7298 0001105  93.5409 266.5706 15.06404085108233","APOAPSIS":"547.966","MEAN_ANOMALY":"266.5706","SEMIMAJOR_AXIS":"6925.336","ELEMENT_SET_NO":"999","ARG_OF_PERICENTER":"93.5409","ECCENTRICITY":"0.00011050","FILE":"3792084","BSTAR":"0.00013466000000","SITE":"AFETR","RA_OF_ASC_NODE":"214.7298","LAUNCH_DATE":"2021-03-11","MEAN_MOTION":"15.06404085","GP_ID":"225431453","RCS_SIZE":"LARGE","DECAY_DATE":null,"MEAN_ELEMENT_THEORY":"SGP4","PERIOD":"95.592","MEAN_MOTION_DDOT":"0.0000000000000","OBJECT_TYPE":"PAYLOAD","TLE_LINE1":"1 47837U 21018BC  23045.75099695  .00001725  00000-0  13466-3 0  9993","CLASSIFICATION_TYPE":"U","CENTER_NAME":"EARTH","OBJECT_NAME":"STARLINK-2427","REF_FRAME":"TEME","EPHEMERIS_TYPE":"0","INCLINATION":"53.0528","COUNTRY_CODE":"US","PERIAPSIS":"546.436","TIME_SYSTEM":"UTC"},{"INCLINATION":"53.0502","EPHEMERIS_TYPE":"0","TIME_SYSTEM":"UTC","COUNTRY_CODE":"US","PERIAPSIS":"546.499","MEAN_MOTION_DDOT":"0.0000000000000","OBJECT_TYPE":"PAYLOAD","PERIOD":"95.592","MEAN_ELEMENT_THEORY":"SGP4","DECAY_DATE":null,"OBJECT_NAME":"STARLINK-2429","CENTER_NAME":"EARTH","REF_FRAME":"TEME","TLE_LINE1":"1 47838U 21018BD  23045.83025086  .00004959  00000-0  35153-3 0  9995","CLASSIFICATION_TYPE":"U","BSTAR":"0.00035153000000","FILE":"3792084","ECCENTRICITY":"0.00010240","ELEMENT_SET_NO":"999","ARG_OF_PERICENTER":"82.7324","MEAN_MOTION":"15.06401611","RCS_SIZE":"MEDIUM","GP_ID":"225431703","LAUNCH_DATE":"2021-03-11","RA_OF_ASC_NODE":"234.3771","SITE":"AFETR","NORAD_CAT_ID":"47838","EPOCH":"2023-02-14T19:55:33.674304","OBJECT_ID":"2021-018BD","MEAN_MOTION_DOT":"0.00004959","SEMIMAJOR_AXIS":"6925.344","APOAPSIS":"547.918","MEAN_ANOMALY":"277.3781","TLE_LINE2":"2 47838  53.0502 234.3771 0001024  82.7324 277.3781 15.06401611107959","REV_AT_EPOCH":"10795"},{"RCS_SIZE":"LARGE","GP_ID":"225432455","MEAN_MOTION":"15.06410215","LAUNCH_DATE":"2021-03-11","SITE":"AFETR","RA_OF_ASC_NODE":"204.2435","BSTAR":"0.00058718000000","FILE":"3792084","ECCENTRICITY":"0.00013370","ARG_OF_PERICENTER":"80.3619","ELEMENT_SET_NO":"999","SEMIMAJOR_AXIS":"6925.317","MEAN_ANOMALY":"279.7521","APOAPSIS":"548.108","TLE_LINE2":"2 47839  53.0540 204.2435 0001337  80.3619 279.7521 15.06410215108390","REV_AT_EPOCH":"10839","NORAD_CAT_ID":"47839","EPOCH":"2023-02-14T20:36:41.555520","OBJECT_ID":"2021-018BE","MEAN_MOTION_DOT":"0.00008478","TIME_SYSTEM":"UTC","PERIAPSIS":"546.256","COUNTRY_CODE":"US","INCLINATION":"53.0540","EPHEMERIS_TYPE":"0","OBJECT_NAME":"STARLINK-2431","CENTER_NAME":"EARTH","REF_FRAME":"TEME","CLASSIFICATION_TYPE":"U","TLE_LINE1":"1 47839U 21018BE  23045.85881430  .00008478  00000-0  58718-3 0  9993","MEAN_MOTION_DDOT":"0.0000000000000","OBJECT_TYPE":"PAYLOAD","PERIOD":"95.591","MEAN_ELEMENT_THEORY":"SGP4","DECAY_DATE":null},{"MEAN_ANOMALY":"284.6789","APOAPSIS":"547.909","SEMIMAJOR_AXIS":"6925.325","TLE_LINE2":"2 47840  53.0518 214.4996 0001038  75.4315 284.6789 15.06407730107891","REV_AT_EPOCH":"10789","EPOCH":"2023-02-14T19:15:44.565696","NORAD_CAT_ID":"47840","MEAN_MOTION_DOT":"0.00001397","OBJECT_ID":"2021-018BF","LAUNCH_DATE":"2021-03-11","RCS_SIZE":"LARGE","GP_ID":"225402593","MEAN_MOTION":"15.06407730","SITE":"AFETR","RA_OF_ASC_NODE":"214.4996","FILE":"3791717","BSTAR":"0.00011265000000","ARG_OF_PERICENTER":"75.4315","ELEMENT_SET_NO":"999","ECCENTRICITY":"0.00010380","OBJECT_NAME":"STARLINK-2432","CENTER_NAME":"EARTH","REF_FRAME":"TEME","CLASSIFICATION_TYPE":"U","TLE_LINE1":"1 47840U 21018BF  23045.80259914  .00001397  00000-0  11265-3 0  9995","PERIOD":"95.592","MEAN_MOTION_DDOT":"0.0000000000000","OBJECT_TYPE":"PAYLOAD","DECAY_DATE":null,"MEAN_ELEMENT_THEORY":"SGP4","PERIAPSIS":"546.471","COUNTRY_CODE":"US","TIME_SYSTEM":"UTC","INCLINATION":"53.0518","EPHEMERIS_TYPE":"0"}];
